NORAD_CAT_ID,OBJECT_NAME,OBJECT_TYPE,EPOCH,MEAN_MOTION,ECCENTRICITY,INCLINATION,RA_OF_ASC_NODE,ARG_OF_PERICENTER,MEAN_ANOMALY,BSTAR,MEAN_MOTION_DOT,MEAN_MOTION_DDOT,TLE_LINE0,TLE_LINE1,TLE_LINE2,SEMIMAJOR_AXIS,PERIOD,APOGEE,PERIGEE,DECAYED
49751.0,STARLINK-3229,PAYLOAD,2023-03-10 13:34:40,15.08907498,0.0001191,53.2185,25.2912,104.7019,255.4105,0.0020492,0.00032536,0.0,0 STARLINK-3229,1 49751U 21115AD  23069.56574823  .00032536  00000-0  20492-2 0  9994,2 49751  53.2185  25.2912 0001191 104.7019 255.4105 15.08907498 70210,6917.674,95.433,540.363,538.715,0.0
49751.0,STARLINK-3229,PAYLOAD,2023-03-11 05:28:34,15.08843001,0.0001051,53.2172,22.3173,122.8925,237.2168,0.001816,0.00028734,0.0,0 STARLINK-3229,1 49751U 21115AD  23070.22817825  .00028734  00000-0  18160-2 0  9995,2 49751  53.2172  22.3173 0001051 122.8925 237.2168 15.08843001 71425,6917.871,95.437,540.463,539.009,0.0
49751.0,STARLINK-3229,PAYLOAD,2023-03-11 07:03:57,15.08845731,0.0001066,53.2175,22.0205,125.0814,235.0278,0.0017883,0.00028292,0.0,0 STARLINK-3229,1 49751U 21115AD  23070.29441819  .00028292  00000-0  17883-2 0  9998,2 49751  53.2175  22.0205 0001066 125.0814 235.0278 15.08845731 70327,6917.863,95.437,540.465,538.99,0.0
49751.0,STARLINK-3229,PAYLOAD,2023-03-12 05:19:21,15.08849918,0.0001078,53.2173,17.8556,152.8598,207.2451,0.0011764,0.00018489,0.0,0 STARLINK-3229,1 49751U 21115AD  23071.22177997  .00018489  00000-0  11764-2 0  9994,2 49751  53.2173  17.8556 0001078 152.8598 207.2451 15.08849918 71579,6917.85,95.437,540.461,538.969,0.0
49751.0,STARLINK-3229,PAYLOAD,2023-03-13 05:10:08,15.08860182,0.0001015,53.2171,13.3982,102.1459,257.9647,0.00054842,8.456e-05,0.0,0 STARLINK-3229,1 49751U 21115AD  23072.21537507  .00008456  00000-0  54842-3 0  9999,2 49751  53.2171  13.3982 0001015 102.1459 257.9647 15.08860182 71728,6917.819,95.436,540.386,538.982,0.0
49751.0,STARLINK-3229,PAYLOAD,2023-03-13 06:45:31,15.08860355,0.0001052,53.2171,13.1003,103.0419,257.069,0.00037862,5.746e-05,0.0,0 STARLINK-3229,1 49751U 21115AD  23072.28161363  .00005746  00000-0  37862-3 0  9991,2 49751  53.2171  13.1003 0001052 103.0419 257.0690 15.08860355 70626,6917.818,95.436,540.411,538.955,0.0
49751.0,STARLINK-3229,PAYLOAD,2023-03-13 19:28:37,15.08829785,0.0001787,53.2174,10.7174,115.5716,244.5461,-0.0001487,-2.653e-05,0.0,0 STARLINK-3229,1 49751U 21115AD  23072.81154060 -.00002653  00000-0 -14870-3 0  9996,2 49751  53.2174  10.7174 0001787 115.5716 244.5461 15.08829785 71815,6917.912,95.438,541.013,538.54,0.0
49751.0,STARLINK-3229,PAYLOAD,2023-03-14 12:57:52,15.08838714,0.0001266,53.2179,7.4503,68.0869,292.0258,0.00025461,3.766e-05,0.0,0 STARLINK-3229,1 49751U 21115AD  23073.54018693  .00003766  00000-0  25461-3 0  9990,2 49751  53.2179   7.4503 0001266  68.0869 292.0258 15.08838714 70815,6917.884,95.438,540.625,538.874,0.0
49751.0,STARLINK-3229,PAYLOAD,2023-03-15 01:40:56,15.08855107,0.0001578,53.218,5.0708,73.8379,286.2787,0.00087243,0.0001363,0.0,0 STARLINK-3229,1 49751U 21115AD  23074.07010176  .00013630  00000-0  87243-3 0  9994,2 49751  53.2180   5.0708 0001578  73.8379 286.2787 15.08855107 72004,6917.834,95.437,540.791,538.608,0.0
49751.0,STARLINK-3229,PAYLOAD,2023-03-15 22:20:57,15.08850373,0.0001124,53.218,1.206,84.8839,275.2281,0.00020956,3.05e-05,0.0,0 STARLINK-3229,1 49751U 21115AD  23074.93121923  .00003050  00000-0  20956-3 0  9995,2 49751  53.2180   1.2060 0001124  84.8839 275.2281 15.08850373 71021,6917.849,95.437,540.491,538.936,0.0
49751.0,STARLINK-3229,PAYLOAD,2023-03-16 04:42:29,15.08855364,0.0001138,53.2168,0.0149,84.8523,275.2599,0.00032434,4.88e-05,0.0,0 STARLINK-3229,1 49751U 21115AD  23075.19617645  .00004880  00000-0  32434-3 0  9991,2 49751  53.2168   0.0149 0001138  84.8523 275.2599 15.08855364 72171,6917.833,95.437,540.486,538.911,0.0
49751.0,STARLINK-3229,PAYLOAD,2023-03-16 19:00:58,15.08834008,0.0001673,53.2179,357.3406,78.1953,281.9227,-0.00015213,-2.708e-05,0.0,0 STARLINK-3229,1 49751U 21115AD  23075.79234304 -.00002708  00000-0 -15213-3 0  9999,2 49751  53.2179 357.3406 0001673  78.1953 281.9227 15.08834008 71155,6917.899,95.438,540.921,538.606,0.0
49751.0,STARLINK-3229,PAYLOAD,2023-03-16 22:11:44,15.08832408,0.0001551,53.2176,356.7461,81.2067,278.9101,-0.00013229,-2.392e-05,0.0,0 STARLINK-3229,1 49751U 21115AD  23075.92482406 -.00002392  00000-0 -13229-3 0  9996,2 49751  53.2176 356.7461 0001551  81.2067 278.9101 15.08832408 72286,6917.904,95.438,540.842,538.696,0.0
49751.0,STARLINK-3229,PAYLOAD,2023-03-17 04:33:17,15.08833597,0.0001257,53.2177,355.5559,78.6445,281.4688,0.00010927,1.451e-05,0.0,0 STARLINK-3229,1 49751U 21115AD  23076.18978469  .00001451  00000-0  10927-3 0  9999,2 49751  53.2177 355.5559 0001257  78.6445 281.4688 15.08833597 71216,6917.9,95.438,540.635,538.895,0.0
49751.0,STARLINK-3229,PAYLOAD,2023-03-17 22:02:32,15.08844848,0.000133,53.217,352.2835,67.1913,292.922,0.00049469,7.595e-05,0.0,0 STARLINK-3229,1 49751U 21115AD  23076.91842710  .00007595  00000-0  49469-3 0  9997,2 49751  53.2170 352.2835 0001330  67.1913 292.9220 15.08844848 71327,6917.866,95.437,540.651,538.81,0.0
49751.0,STARLINK-3229,PAYLOAD,2023-03-18 02:48:41,15.08856074,0.0001272,53.2175,351.3922,71.4536,288.6594,0.00085768,0.00013394,0.0,0 STARLINK-3229,1 49751U 21115AD  23077.11714391  .00013394  00000-0  85768-3 0  9999,2 49751  53.2175 351.3922 0001272  71.4536 288.6594 15.08856074 72469,6917.831,95.437,540.576,538.816,0.0
49751.0,STARLINK-3229,PAYLOAD,2023-03-18 10:45:37,15.08834368,9.13e-05,53.2184,349.9064,73.3896,286.7196,-0.00035994,-6.011e-05,0.0,0 STARLINK-3229,1 49751U 21115AD  23077.44834531 -.00006011  00000-0 -35994-3 0  9990,2 49751  53.2184 349.9064 0000913  73.3896 286.7196 15.08834368 72515,6917.898,95.438,540.394,539.131,0.0
49751.0,STARLINK-3229,PAYLOAD,2023-03-18 21:53:18,15.08845475,0.0001143,53.2175,347.8241,74.0721,286.0397,0.00030056,4.499e-05,0.0,0 STARLINK-3229,1 49751U 21115AD  23077.91202538  .00004499  00000-0  30056-3 0  9998,2 49751  53.2175 347.8241 0001143  74.0721 286.0397 15.08845475 71471,6917.864,95.437,540.519,538.938,0.0
49751.0,STARLINK-3229,PAYLOAD,2023-03-19 04:14:51,15.08862038,0.0001194,53.2175,346.6356,73.61,286.5023,0.0010124,0.00015871,0.0,0 STARLINK-3229,1 49751U 21115AD  23078.17698208  .00015871  00000-0  10124-2 0  9999,2 49751  53.2175 346.6356 0001194  73.6100 286.5023 15.08862038 72620,6917.813,95.436,540.504,538.852,0.0
49751.0,STARLINK-3229,PAYLOAD,2023-03-19 10:36:24,15.08835019,0.0002068,53.2173,345.4452,79.4273,280.6952,0.00012578,1.714e-05,0.0,0 STARLINK-3229,1 49751U 21115AD  23078.44195078  .00001714  00000-0  12578-3 0  9993,2 49751  53.2173 345.4452 0002068  79.4273 280.6952 15.08835019 72667,6917.896,95.438,541.191,538.33,0.0
49751.0,STARLINK-3229,PAYLOAD,2023-03-19 21:44:06,15.08848142,0.0001201,53.2174,343.3649,84.912,275.2009,0.00057531,8.882e-05,0.0,0 STARLINK-3229,1 49751U 21115AD  23078.90562630  .00008882  00000-0  57531-3 0  9997,2 49751  53.2174 343.3649 0001201  84.9120 275.2009 15.08848142 71622,6917.856,95.437,540.551,538.89,0.0
49751.0,STARLINK-3229,PAYLOAD,2023-03-20 02:30:15,15.0886127,0.0001229,53.2176,342.4735,85.0042,275.1091,0.0010375,0.00016272,0.0,0 STARLINK-3229,1 49751U 21115AD  23079.10434373  .00016272  00000-0  10375-2 0  9998,2 49751  53.2176 342.4735 0001229  85.0042 275.1091 15.08861270 72768,6917.815,95.436,540.531,538.83,0.0
49751.0,STARLINK-3229,PAYLOAD,2023-03-20 21:34:53,15.08850377,6.51e-05,53.217,338.9067,63.4105,296.6954,0.001582,0.00024986,0.0,0 STARLINK-3229,1 49751U 21115AD  23079.89922842  .00024986  00000-0  15820-2 0  9998,2 49751  53.2170 338.9067 0000651  63.4105 296.6954 15.08850377 72883,6917.849,95.437,540.164,539.263,0.0
49751.0,STARLINK-3229,PAYLOAD,2023-03-21 00:45:39,15.08856822,8.3e-05,53.2166,338.311,108.7036,251.4046,0.0016598,0.00026239,0.0,0 STARLINK-3229,1 49751U 21115AD  23080.03170629  .00026239  00000-0  16598-2 0  9990,2 49751  53.2166 338.3110 0000830 108.7036 251.4046 15.08856822 71797,6917.829,95.436,540.268,539.12,0.0
49751.0,STARLINK-3229,PAYLOAD,2023-03-21 19:50:16,15.08856467,0.0001941,53.2168,334.7417,169.6915,190.4117,0.0019953,0.00031625,0.0,0 STARLINK-3229,1 49751U 21115AD  23080.82658382  .00031625  00000-0  19953-2 0  9997,2 49751  53.2168 334.7417 0001941 169.6915 190.4117 15.08856467 73029,6917.83,95.437,541.038,538.352,0.0
49751.0,STARLINK-3229,PAYLOAD,2023-03-22 02:11:49,15.08864449,0.0001169,53.2166,333.5523,80.4296,279.6828,0.0014156,0.00022328,0.0,0 STARLINK-3229,1 49751U 21115AD  23081.09154644  .00022328  00000-0  14156-2 0  9999,2 49751  53.2166 333.5523 0001169  80.4296 279.6828 15.08864449 73068,6917.806,95.436,540.479,538.862,0.0
49751.0,STARLINK-3229,PAYLOAD,2023-03-22 21:16:27,15.08848925,0.0001198,53.2164,329.9845,65.4764,294.6353,0.0011839,0.00018609,0.0,0 STARLINK-3229,1 49751U 21115AD  23081.88642985  .00018609  00000-0  11839-2 0  9998,2 49751  53.2164 329.9845 0001198  65.4764 294.6353 15.08848925 72078,6917.853,95.437,540.547,538.889,0.0
49751.0,STARLINK-3229,PAYLOAD,2023-03-22 22:51:50,15.08848692,0.0001376,53.2166,329.6875,76.1983,283.9163,0.0009687,0.00015166,0.0,0 STARLINK-3229,1 49751U 21115AD  23081.95266939  .00015166  00000-0  96870-3 0  9991,2 49751  53.2166 329.6875 0001376  76.1983 283.9163 15.08848692 73195,6917.854,95.437,540.671,538.767,0.0
49751.0,STARLINK-3229,PAYLOAD,2023-03-23 21:07:14,15.08846852,0.0001243,53.2165,325.5227,76.5401,283.5729,0.00065869,0.00010213,0.0,0 STARLINK-3229,1 49751U 21115AD  23082.88003082  .00010213  00000-0  65869-3 0  9994,2 49751  53.2165 325.5227 0001243  76.5401 283.5729 15.08846852 73338,6917.859,95.437,540.584,538.865,0.0
49751.0,STARLINK-3229,PAYLOAD,2023-03-23 22:42:37,15.08849069,0.0001168,53.2164,325.2255,78.0245,282.0878,0.00136,0.00021428,0.0,0 STARLINK-3229,1 49751U 21115AD  23082.94627253  .00021428  00000-0  13600-2 0  9998,2 49751  53.2164 325.2255 0001168  78.0245 282.0878 15.08849069 72234,6917.853,95.437,540.526,538.91,0.0
